NORAD_CAT_ID,OBJECT_NAME,OBJECT_TYPE,EPOCH,MEAN_MOTION,ECCENTRICITY,INCLINATION,RA_OF_ASC_NODE,ARG_OF_PERICENTER,MEAN_ANOMALY,BSTAR,MEAN_MOTION_DOT,MEAN_MOTION_DDOT,TLE_LINE0,TLE_LINE1,TLE_LINE2,SEMIMAJOR_AXIS,PERIOD,APOGEE,PERIGEE,DECAYED
52639.0,STARLINK-3968,PAYLOAD,2023-10-16 02:29:23,15.08847885,0.0001314,53.216,229.7777,96.3788,263.7354,0.00054531,8.403e-05,0.0,0 STARLINK-3968,1 52639U 22052AT  23289.10374584  .00008403  00000-0  54531-3 0  9998,2 52639  53.2160 229.7777 0001314  96.3788 263.7354 15.08847885 79320,6917.856,95.437,540.63,538.812,0.0
52639.0,STARLINK-3968,PAYLOAD,2023-10-18 02:10:57,15.08851201,0.0001505,53.2161,220.8568,84.3835,275.7328,0.00026429,3.922e-05,0.0,0 STARLINK-3968,1 52639U 22052AT  23291.09094172  .00003922  00000-0  26429-3 0  9997,2 52639  53.2161 220.8568 0001505  84.3835 275.7328 15.08851201 79627,6917.846,95.437,540.752,538.67,0.0
52639.0,STARLINK-3968,PAYLOAD,2023-10-18 05:21:43,15.08852325,0.0001517,53.2163,220.2623,94.6362,265.4803,0.00029204,4.364e-05,0.0,0 STARLINK-3968,1 52639U 22052AT  23291.22341999  .00004364  00000-0  29204-3 0  9999,2 52639  53.2163 220.2623 0001517  94.6362 265.4803 15.08852325 80070,6917.843,95.437,540.757,538.658,0.0
52639.0,STARLINK-3968,PAYLOAD,2023-10-19 02:01:44,15.08857015,0.0001308,53.2156,216.3978,97.1043,263.0097,0.00044577,6.817e-05,0.0,0 STARLINK-3968,1 52639U 22052AT  23292.08453886  .00006817  00000-0  44577-3 0  9998,2 52639  53.2156 216.3978 0001308  97.1043 263.0097 15.08857015 79778,6917.828,95.436,540.598,538.789,0.0
52639.0,STARLINK-3968,PAYLOAD,2023-10-19 19:30:58,15.08847007,0.0001089,53.2157,213.1258,94.3887,265.7229,0.00033612,5.067e-05,0.0,0 STARLINK-3968,1 52639U 22052AT  23292.81318013  .00005067  00000-0  33612-3 0  9995,2 52639  53.2157 213.1258 0001089  94.3887 265.7229 15.08847007 79884,6917.859,95.437,540.477,538.971,0.0
52639.0,STARLINK-3968,PAYLOAD,2023-10-19 22:41:45,15.08846728,0.0001437,53.2167,212.5313,91.5399,268.5757,0.00024566,3.625e-05,0.0,0 STARLINK-3968,1 52639U 22052AT  23292.94566024  .00003625  00000-0  24566-3 0  9992,2 52639  53.2167 212.5313 0001437  91.5399 268.5757 15.08846728 80332,6917.86,95.437,540.719,538.731,0.0
52639.0,STARLINK-3968,PAYLOAD,2023-10-20 05:03:17,15.08852085,0.0001213,53.215,211.3418,83.9429,276.1701,0.00034784,5.254e-05,0.0,0 STARLINK-3968,1 52639U 22052AT  23293.21061758  .00005254  00000-0  34784-3 0  9990,2 52639  53.2150 211.3418 0001213  83.9429 276.1701 15.08852085 80379,6917.843,95.437,540.548,538.869,0.0
52639.0,STARLINK-3968,PAYLOAD,2023-10-20 22:32:32,15.08828602,0.0001671,53.2157,208.0708,112.3434,247.7735,-0.0001865,-3.254e-05,0.0,0 STARLINK-3968,1 52639U 22052AT  23293.93926810 -.00003254  00000-0 -18650-3 0  9992,2 52639  53.2157 208.0708 0001671 112.3434 247.7735 15.08828602 80483,6917.915,95.438,540.936,538.624,0.0
52639.0,STARLINK-3968,PAYLOAD,2023-10-21 01:43:19,15.08830197,0.0001228,53.2167,207.4733,53.4403,306.6703,-0.00014906,-2.659e-05,0.0,0 STARLINK-3968,1 52639U 22052AT  23294.07175276 -.00002659  00000-0 -14906-3 0  9998,2 52639  53.2167 207.4733 0001228  53.4403 306.6703 15.08830197 80071,6917.91,95.438,540.625,538.926,0.0
52639.0,STARLINK-3968,PAYLOAD,2023-10-21 11:15:37,15.08839549,0.0001374,53.2153,205.6941,90.4679,269.6471,0.00013913,1.927e-05,0.0,0 STARLINK-3968,1 52639U 22052AT  23294.46918865  .00001927  00000-0  13913-3 0  9992,2 52639  53.2153 205.6941 0001374  90.4679 269.6471 15.08839549 80132,6917.882,95.438,540.697,538.796,0.0
52639.0,STARLINK-3968,PAYLOAD,2023-10-21 22:23:18,15.08854978,0.0001221,53.2158,203.6067,85.3766,274.7365,0.00031371,4.71e-05,0.0,0 STARLINK-3968,1 52639U 22052AT  23294.93285868  .00004710  00000-0  31371-3 0  9995,2 52639  53.2158 203.6067 0001221  85.3766 274.7365 15.08854978 80632,6917.835,95.437,540.544,538.855,0.0
52639.0,STARLINK-3968,PAYLOAD,2023-10-22 03:09:28,15.08879995,0.0001545,53.2148,202.7197,84.6715,275.4454,0.0012689,0.00019986,0.0,0 STARLINK-3968,1 52639U 22052AT  23295.13157735  .00019986  00000-0  12689-2 0  9990,2 52639  53.2148 202.7197 0001545  84.6715 275.4454 15.08879995 80239,6917.758,95.435,540.692,538.554,0.0
52639.0,STARLINK-3968,PAYLOAD,2023-10-22 11:06:25,15.08833158,0.0002791,53.2149,201.2322,79.1036,281.0271,-0.00040529,-6.732e-05,0.0,0 STARLINK-3968,1 52639U 22052AT  23295.46278998 -.00006732  00000-0 -40529-3 0  9993,2 52639  53.2149 201.2322 0002791  79.1036 281.0271 15.08833158 80289,6917.901,95.438,541.697,537.836,0.0
52639.0,STARLINK-3968,PAYLOAD,2023-10-22 22:14:07,15.08822753,0.0002251,53.2145,199.151,73.277,286.8469,-0.00030843,-5.191e-05,0.0,0 STARLINK-3968,1 52639U 22052AT  23295.92647385 -.00005191  00000-0 -30843-3 0  9990,2 52639  53.2145 199.1510 0002251  73.2770 286.8469 15.08822753 80786,6917.933,95.439,541.355,538.241,0.0
52639.0,STARLINK-3968,PAYLOAD,2023-10-23 01:24:53,15.08813539,0.0001613,53.215,198.5568,67.461,292.6553,0.0015763,0.0002487,0.0,0 STARLINK-3968,1 52639U 22052AT  23296.05895789  .00024870  00000-0  15763-2 0  9994,2 52639  53.2150 198.5568 0001613  67.4610 292.6553 15.08813539 80373,6917.961,95.439,540.942,538.71,0.0
52639.0,STARLINK-3968,PAYLOAD,2023-10-23 22:04:55,15.08845363,0.0001626,53.2154,194.6909,64.5778,295.5382,0.0011348,0.00017821,0.0,0 STARLINK-3968,1 52639U 22052AT  23296.92008245  .00017821  00000-0  11348-2 0  9996,2 52639  53.2154 194.6909 0001626  64.5778 295.5382 15.08845363 80934,6917.864,95.437,540.854,538.604,0.0
52639.0,STARLINK-3968,PAYLOAD,2023-10-24 02:51:04,15.08862795,0.0001645,53.2152,193.7986,68.0685,292.0482,0.0017623,0.00027888,0.0,0 STARLINK-3968,1 52639U 22052AT  23297.11880015  .00027888  00000-0  17623-2 0  9997,2 52639  53.2152 193.7986 0001645  68.0685 292.0482 15.08862795 80531,6917.811,95.436,540.814,538.538,0.0
52639.0,STARLINK-3968,PAYLOAD,2023-10-24 10:47:59,15.08862704,0.0001549,53.2162,192.3106,76.8367,283.2798,0.00085252,0.00013314,0.0,0 STARLINK-3968,1 52639U 22052AT  23297.44999842  .00013314  00000-0  85252-3 0  9995,2 52639  53.2162 192.3106 0001549  76.8367 283.2798 15.08862704 80585,6917.811,95.436,540.748,538.604,0.0
52639.0,STARLINK-3968,PAYLOAD,2023-10-25 02:41:50,15.08865482,0.0001793,53.2163,189.3374,79.9968,280.1226,0.00076574,0.00011928,0.0,0 STARLINK-3968,1 52639U 22052AT  23298.11239176  .00011928  00000-0  76574-3 0  9993,2 52639  53.2163 189.3374 0001793  79.9968 280.1226 15.08865482 80680,6917.803,95.436,540.908,538.427,0.0
52639.0,STARLINK-3968,PAYLOAD,2023-10-25 21:46:28,15.08856211,0.0001645,53.2164,185.7673,94.0694,266.0486,0.00060414,9.344e-05,0.0,0 STARLINK-3968,1 52639U 22052AT  23298.90727000  .00009344  00000-0  60414-3 0  9993,2 52639  53.2164 185.7673 0001645  94.0694 266.0486 15.08856211 81236,6917.831,95.437,540.834,538.558,0.0
52639.0,STARLINK-3968,PAYLOAD,2023-10-26 02:32:37,15.08854158,0.0001639,53.2164,184.877,83.3428,276.7751,0.00054709,8.433e-05,0.0,0 STARLINK-3968,1 52639U 22052AT  23299.10599002  .00008433  00000-0  54709-3 0  9993,2 52639  53.2164 184.8770 0001639  83.3428 276.7751 15.08854158 80839,6917.837,95.437,540.836,538.568,0.0
52639.0,STARLINK-3968,PAYLOAD,2023-10-26 21:37:15,15.08848189,0.0001738,53.2173,181.3068,82.9938,277.1252,0.00036042,5.454e-05,0.0,0 STARLINK-3968,1 52639U 22052AT  23299.90086964  .00005454  00000-0  36042-3 0  9999,2 52639  53.2173 181.3068 0001738  82.9938 277.1252 15.08848189 81381,6917.855,95.437,540.923,538.518,0.0
52639.0,STARLINK-3968,PAYLOAD,2023-10-27 02:23:24,15.08858377,0.0001543,53.216,180.4165,83.2943,276.8225,0.00045454,6.957e-05,0.0,0 STARLINK-3968,1 52639U 22052AT  23300.09958391  .00006957  00000-0  45454-3 0  9990,2 52639  53.2160 180.4165 0001543  83.2943 276.8225 15.08858377 80980,6917.824,95.436,540.757,538.622,0.0
52639.0,STARLINK-3968,PAYLOAD,2023-10-27 08:44:56,15.08848416,0.0001634,53.216,179.2237,83.747,276.3708,0.00032988,4.967e-05,0.0,0 STARLINK-3968,1 52639U 22052AT  23300.36454834  .00004967  00000-0  32988-3 0  9990,2 52639  53.2160 179.2237 0001634  83.7470 276.3708 15.08848416 81027,6917.855,95.437,540.85,538.589,0.0
52639.0,STARLINK-3968,PAYLOAD,2023-10-27 15:06:29,15.08841019,0.0002089,53.2159,178.0368,84.8358,275.2872,6.3744e-05,7.26e-06,0.0,0 STARLINK-3968,1 52639U 22052AT  23300.62951150  .00000726  00000-0  63744-4 0  9996,2 52639  53.2159 178.0368 0002089  84.8358 275.2872 15.08841019 81065,6917.877,95.437,541.187,538.297,0.0
52639.0,STARLINK-3968,PAYLOAD,2023-10-27 23:03:25,15.08842609,0.000157,53.2157,176.5524,97.7263,262.3907,6.6827e-05,7.76e-06,0.0,0 STARLINK-3968,1 52639U 22052AT  23300.96070900  .00000776  00000-0  66827-4 0  9998,2 52639  53.2157 176.5524 0001570  97.7263 262.3907 15.08842609 81547,6917.872,95.437,540.824,538.651,0.0
52639.0,STARLINK-3968,PAYLOAD,2023-10-28 08:35:44,15.08837989,0.0001554,53.2158,174.7687,95.7328,264.3841,9.9415e-06,-1.3e-06,0.0,0 STARLINK-3968,1 52639U 22052AT  23301.35815101 -.00000130  00000-0  99415-5 0  9997,2 52639  53.2158 174.7687 0001554  95.7328 264.3841 15.08837989 81601,6917.887,95.438,540.827,538.676,0.0
52639.0,STARLINK-3968,PAYLOAD,2023-10-28 19:43:26,15.0882965,0.0001578,53.216,172.6876,97.8299,262.2872,-0.00015406,-2.738e-05,0.0,0 STARLINK-3968,1 52639U 22052AT  23301.82183751 -.00002738  00000-0 -15406-3 0  9991,2 52639  53.2160 172.6876 0001578  97.8299 262.2872 15.08829650 81244,6917.912,95.438,540.869,538.685,0.0
52639.0,STARLINK-3968,PAYLOAD,2023-10-28 21:18:49,15.08830597,0.0001751,53.2166,172.3898,91.5823,268.537,-0.00012772,-2.32e-05,0.0,0 STARLINK-3968,1 52639U 22052AT  23301.88807825 -.00002320  00000-0 -12772-3 0  9992,2 52639  53.2166 172.3898 0001751  91.5823 268.5370 15.08830597 81680,6917.909,95.438,540.985,538.563,0.0
52639.0,STARLINK-3968,PAYLOAD,2023-10-29 08:26:31,15.08840956,0.0001674,53.216,170.3076,92.3361,267.7823,0.00018988,2.735e-05,0.0,0 STARLINK-3968,1 52639U 22052AT  23302.35175691  .00002735  00000-0  18988-3 0  9997,2 52639  53.2160 170.3076 0001674  92.3361 267.7823 15.08840956 81325,6917.877,95.437,540.901,538.584,0.0
